[{"OBJECT_NAME":"COSMOS 2584 (704K)","OBJECT_ID":"2025-042A","EPOCH":"2026-04-04T22:27:59.539392","MEAN_MOTION":2.13103635,"ECCENTRICITY":0.00072792,"INCLINATION":65.044,"RA_OF_ASC_NODE":75.2908,"ARG_OF_PERICENTER":238.6738,"MEAN_ANOMALY":121.2398,"EPHEMERIS_TYPE":0,"CLASSIFICATION_TYPE":"U","NORAD_CAT_ID":63130,"ELEMENT_SET_NO":999,"REV_AT_EPOCH":848,"BSTAR":0,"MEAN_MOTION_DOT":-1.0e-8,"MEAN_MOTION_DDOT":0},{"OBJECT_NAME":"GPS BIII-8  (PRN 21)","OBJECT_ID":"2025-116A","EPOCH":"2026-04-04T19:14:56.524704","MEAN_MOTION":2.00551336,"ECCENTRICITY":0.00089888,"INCLINATION":55.188,"RA_OF_ASC_NODE":34.0836,"ARG_OF_PERICENTER":331.9615,"MEAN_ANOMALY":31.0765,"EPHEMERIS_TYPE":0,"CLASSIFICATION_TYPE":"U","NORAD_CAT_ID":64202,"ELEMENT_SET_NO":999,"REV_AT_EPOCH":640,"BSTAR":0,"MEAN_MOTION_DOT":-8.7e-7,"MEAN_MOTION_DDOT":0},{"OBJECT_NAME":"COSMOS 2596 (708K)","OBJECT_ID":"2025-206B","EPOCH":"2026-04-05T00:29:49.490016","MEAN_MOTION":2.13100638,"ECCENTRICITY":0.0012137,"INCLINATION":64.6763,"RA_OF_ASC_NODE":317.5338,"ARG_OF_PERICENTER":317.3957,"MEAN_ANOMALY":224.6083,"EPHEMERIS_TYPE":0,"CLASSIFICATION_TYPE":"U","NORAD_CAT_ID":65590,"ELEMENT_SET_NO":999,"REV_AT_EPOCH":435,"BSTAR":0,"MEAN_MOTION_DOT":-4.8e-7,"MEAN_MOTION_DDOT":0},{"OBJECT_NAME":"GSAT0233 (GALILEO 33)","OBJECT_ID":"2025-302A","EPOCH":"2026-04-04T21:57:21.900384","MEAN_MOTION":1.70474884,"ECCENTRICITY":0.00024897,"INCLINATION":54.2855,"RA_OF_ASC_NODE":104.2166,"ARG_OF_PERICENTER":236.9893,"MEAN_ANOMALY":310.4133,"EPHEMERIS_TYPE":0,"CLASSIFICATION_TYPE":"U","NORAD_CAT_ID":67160,"ELEMENT_SET_NO":999,"REV_AT_EPOCH":187,"BSTAR":0,"MEAN_MOTION_DOT":2.7e-7,"MEAN_MOTION_DDOT":0},{"OBJECT_NAME":"GSAT0234 (GALILEO 34)","OBJECT_ID":"2025-302C","EPOCH":"2026-04-02T20:25:54.111072","MEAN_MOTION":1.7047482,"ECCENTRICITY":0.00038847,"INCLINATION":54.2863,"RA_OF_ASC_NODE":104.2742,"ARG_OF_PERICENTER":286.43,"MEAN_ANOMALY":254.6427,"EPHEMERIS_TYPE":0,"CLASSIFICATION_TYPE":"U","NORAD_CAT_ID":67162,"ELEMENT_SET_NO":999,"REV_AT_EPOCH":189,"BSTAR":0,"MEAN_MOTION_DOT":2.9e-7,"MEAN_MOTION_DDOT":0},{"OBJECT_NAME":"GPS BIII-9  (PRN 20)","OBJECT_ID":"2026-017A","EPOCH":"2026-04-04T09:49:34.959360","MEAN_MOTION":2.00553521,"ECCENTRICITY":0.00244361,"INCLINATION":55.0405,"RA_OF_ASC_NODE":91.7145,"ARG_OF_PERICENTER":250.4586,"MEAN_ANOMALY":109.2865,"EPHEMERIS_TYPE":0,"CLASSIFICATION_TYPE":"U","NORAD_CAT_ID":67588,"ELEMENT_SET_NO":999,"REV_AT_EPOCH":43013,"BSTAR":0,"MEAN_MOTION_DOT":1.0e-8,"MEAN_MOTION_DDOT":0}]
